From:	Horizons Ephemeris System <horizons@ssd.jpl.nasa.gov>
Sent:	Wednesday, March 4, 2020 9:55 AM
Subject:	[Horizons] MAJOR BODY #C(usr={0.,-60.,.600^G}@301)_T(301) (1/1)

 Automated mail xmit by MAIL_REQUEST, PID= 27529 Wed Mar  4 07:54:47 2020
++++++++++++++++++++++++++++++++ (part 1 of 1)  +++++++++++++++++++++++++++++++
*******************************************************************************
 Revised: July 31, 2013             Moon / (Earth)                          301
 
 GEOPHYSICAL DATA (updated 2018-Aug-15):
  Vol. mean radius, km  = 1737.53+-0.03    Mass, x10^22 kg       =    7.349
  Radius (gravity), km  = 1738.0           Surface emissivity    =    0.92
  Radius (IAU), km      = 1737.4           GM, km^3/s^2          = 4902.800066
  Density, g/cm^3       =    3.3437        GM 1-sigma, km^3/s^2  =  +-0.0001  
  V(1,0)                =   +0.21          Surface accel., m/s^2 =    1.62
  Earth/Moon mass ratio = 81.3005690769    Farside crust. thick. = ~80 - 90 km
  Mean crustal density  = 2.97+-.07 g/cm^3 Nearside crust. thick.= 58+-8 km 
  Heat flow, Apollo 15  = 3.1+-.6 mW/m^2   Mean angular diameter = 31'05.2"
  Heat flow, Apollo 17  = 2.2+-.5 mW/m^2   Sid. rot. rate, rad/s = 0.0000026617
  Geometric Albedo      = 0.12             Mean solar day        = 29.5306 d
  Obliquity to orbit    = 6.67 deg         Orbit period          = 27.321582 d
  Semi-major axis, a    = 384400 km        Eccentricity          = 0.05490
  Mean motion, rad/s    = 2.6616995x10^-6  Inclination           = 5.145 deg
  Apsidal period        = 3231.50 d        Nodal period          = 6798.38 d
                                 Perihelion  Aphelion    Mean
  Solar Constant (W/m^2)         1414+-7     1323+-7     1368+-7
  Maximum Planetary IR (W/m^2)   1314        1226        1268
  Minimum Planetary IR (W/m^2)      5.2         5.2         5.2
 *******************************************************************************
 
 
*******************************************************************************
Ephemeris / MAIL_REQUEST Wed Mar  4 07:54:46 2020 Pasadena, USA  / Horizons    
*******************************************************************************
Target body name: Moon (301)                      {source: DE431mx}
Center body name: Moon (301)                      {source: DE431mx}
Center-site name: (user defined site below)
*******************************************************************************
Start time      : A.D. 2020-Jan-01 00:00:00.0000 TDB
Stop  time      : A.D. 2039-Jan-01 00:00:00.0000 TDB
Step-size       : 10000 steps
*******************************************************************************
Center geodetic : 0.00000000,-60.000000,0.6000000 {E-lon(deg),Lat(deg),Alt(km)}
Center cylindric: 0.00000000,869.000000,-1505.152 {E-lon(deg),Dxy(km),Dz(km)}
Center pole/equ : IAU_MOON                        {East-longitude positive}
Center radii    : 1737.4 x 1737.4 x 1737.4 km     {Equator, meridian, pole}    
Output units    : KM-S                                                         
Output type     : GEOMETRIC cartesian states
Output format   : 3 (position, velocity, LT, range, range-rate)
Reference frame : ICRF/J2000.0                                                 
Coordinate systm: Ecliptic and Mean Equinox of Reference Epoch                 
*******************************************************************************
JDTDB
   X     Y     Z
   VX    VY    VZ
   LT    RG    RR
*******************************************************************************
$$SOE
2461563.040000001 = A.D. 2027-Jun-06 12:57:36.0001 TDB 
  -1.168185818699039E+02  8.847721431590072E+02  1.491367048589890E+03
  -2.278803104870556E-03 -3.877730738964111E-04  5.155288005837784E-05
   5.797343974543882E-03  1.738000000000000E+03 -3.193967274525767E-20
2461563.734000001 = A.D. 2027-Jun-07 05:36:57.6001 TDB 
  -2.510242286085497E+02  8.507367207612938E+02  1.494616294772609E+03
  -2.188077680931505E-03 -7.450534584508342E-04  5.659233365696502E-05
   5.797343974543881E-03  1.738000000000000E+03 -3.193967274525767E-20
2461564.428000001 = A.D. 2027-Jun-07 22:16:19.2001 TDB 
  -3.781074116745864E+02  7.958021508173338E+02  1.498124735124298E+03
  -2.041741481479285E-03 -1.083377776040791E-03  6.017975361892247E-05
   5.797343974543881E-03  1.738000000000000E+03 -1.596983637262884E-20
2461565.122000001 = A.D. 2027-Jun-08 14:55:40.8001 TDB 
  -4.948385121944030E+02  7.213657185208556E+02  1.501802366156119E+03
  -1.843521655170023E-03 -1.394151564839067E-03  6.222365496319715E-05
   5.797343974543882E-03  1.738000000000000E+03  2.395475455894326E-20
2461565.816000001 = A.D. 2027-Jun-09 07:35:02.4001 TDB 
  -5.982514417736769E+02  6.293200311140205E+02  1.505554884703432E+03
  -1.598462245422237E-03 -1.669482965089573E-03  6.267239377888379E-05
   5.797343974543882E-03  1.737999999999999E+03  1.437285273536596E-19
2461566.510000001 = A.D. 2027-Jun-10 00:14:24.0001 TDB 
  -6.857189025928263E+02  5.220047919123123E+02  1.509286117291043E+03
  -1.312795380631066E-03 -1.902382626981458E-03  6.151533399540593E-05
   5.797343974543881E-03  1.738000000000000E+03  4.790950911788652E-20
2461567.204000001 = A.D. 2027-Jun-10 16:53:45.6001 TDB 
  -7.550190067730879E+02  4.021472567154043E+02  1.512900486921613E+03
  -9.937824956529669E-04 -2.086940508226202E-03  5.878293269373698E-05
   5.797343974543882E-03  1.738000000000000E+03 -2.395475455894326E-20
2461567.898000001 = A.D. 2027-Jun-11 09:33:07.2001 TDB 
  -8.043915768067689E+02  2.727928940231761E+02  1.516305453440295E+03
  -6.495296613706355E-04 -2.218475145772316E-03  5.454578208722498E-05
   5.797343974543882E-03  1.738000000000000E+03 -1.676832819126028E-19
2461568.592000001 = A.D. 2027-Jun-12 02:12:28.8001 TDB 
  -8.325827128828723E+02  1.372280144101182E+02  1.519413866683351E+03
  -2.887817328005491E-04 -2.293651696985039E-03  4.891267035872407E-05
   5.797343974543882E-03  1.738000000000000E+03  0.000000000000000E+00
2461569.286000001 = A.D. 2027-Jun-12 18:51:50.4001 TDB 
  -8.388765113461869E+02 -1.103666976079012E+00  1.522146175842141E+03
   7.929946302274401E-05 -2.310565842604532E-03  4.202773865671146E-05
   5.797343974543882E-03  1.738000000000000E+03 -1.996229546578605E-19
2461569.980000001 = A.D. 2027-Jun-13 11:31:12.0001 TDB 
  -8.231131436074675E+02 -1.386884220305224E+02  1.524432443375342E+03
   4.453673003270596E-04 -2.268791505696457E-03  3.406681943602307E-05
   5.797343974543882E-03  1.738000000000000E+03  4.072308275020353E-19
2461570.674000001 = A.D. 2027-Jun-14 04:10:33.6001 TDB 
  -7.856928484052346E+02 -2.720316469890699E+02  1.526214117023323E+03
   8.001270517873833E-04 -2.169391245881729E-03  2.523304456071085E-05
   5.797343974543881E-03  1.738000000000000E+03  3.992459093157209E-19
2461571.368000001 = A.D. 2027-Jun-14 20:49:55.2001 TDB 
  -7.275657439089338E+02 -3.977464962731949E+02  1.527445518829603E+03
   1.134571176736278E-03 -2.014889114431773E-03  1.575181325875509E-05
   5.797343974543882E-03  1.738000000000000E+03 -1.577021341797098E-19
2461572.062000001 = A.D. 2027-Jun-15 13:29:16.8001 TDB 
  -6.502077211957063E+02 -5.126397787122712E+02  1.528095015560001E+03
   1.440207314877179E-03 -1.809206681784246E-03  5.865213334103176E-06
   5.797343974543881E-03  1.738000000000000E+03 -8.184541140972279E-20
2461572.756000001 = A.D. 2027-Jun-16 06:08:38.4001 TDB 
  -5.555830285900664E+02 -6.137929519359167E+02  1.528145840715631E+03
   1.709273287669016E-03 -1.557563853540064E-03 -4.174003208226996E-06
   5.797343974543881E-03  1.738000000000000E+03  6.288123071722605E-20
2461573.450000001 = A.D. 2027-Jun-16 22:48:00.0001 TDB 
  -4.460944890096977E+02 -6.986361737253023E+02  1.527596544784533E+03
   1.934933732111608E-03 -1.266346954065201E-03 -1.410877510585622E-05
   5.797343974543881E-03  1.738000000000000E+03 -4.192082047815070E-20
2461574.144000001 = A.D. 2027-Jun-17 15:27:21.6001 TDB 
  -3.245226018728602E+02 -7.650135422115484E+02  1.526461057841505E+03
   2.111453441591701E-03 -9.429473594491033E-04 -2.368428253490010E-05
   5.797343974543881E-03  1.737999999999999E+03 -7.585672276998700E-20
2461574.838000001 = A.D. 2027-Jun-18 08:06:43.2001 TDB 
  -1.939550600411491E+02 -8.112378757274751E+02  1.524768357380755E+03
   2.234343055147601E-03 -5.955746867753525E-04 -3.265453541319923E-05
   5.797343974543882E-03  1.738000000000000E+03  1.477209864468167E-19
2461575.532000001 = A.D. 2027-Jun-19 00:46:04.8001 TDB 
  -5.770845396557804E+01 -8.361336428559122E+02  1.522561744437776E+03
   2.300473407973668E-03 -2.330491788301050E-04 -4.078881879410560E-05
   5.797343974543881E-03  1.738000000000000E+03  1.596983637262884E-20
2461576.226000001 = A.D. 2027-Jun-19 17:25:26.4001 TDB 
   8.075586613611671E+01 -8.390669477024737E+02  1.519897742401724E+03
   2.308155617885186E-03  1.354215509950738E-04 -4.787779902725630E-05
   5.797343974543881E-03  1.738000000000000E+03  3.193967274525767E-20
2461576.920000001 = A.D. 2027-Jun-20 10:04:48.0001 TDB 
   2.179196485725889E+02 -8.199617979300024E+02  1.516844644880087E+03
   2.257184819203777E-03  5.004758417581147E-04 -5.373909042754923E-05
   5.797343974543882E-03  1.738000000000000E+03 -2.395475455894326E-20
2461577.614000001 = A.D. 2027-Jun-21 02:44:09.6001 TDB 
   3.502970988185568E+02 -7.793022261917841E+02  1.513480750723917E+03
   2.148846349895061E-03  8.528355263572862E-04 -5.822209358610076E-05
   5.797343974543881E-03  1.738000000000000E+03  1.117888546084019E-19
2461578.308000001 = A.D. 2027-Jun-21 19:23:31.2001 TDB 
   4.745234745558795E+02 -7.181201912528852E+02  1.509892334906809E+03
   1.985884130917854E-03  1.183541701887349E-03 -6.121194367088382E-05
   5.797343974543883E-03  1.738000000000000E+03  3.992459093157209E-20
